{"fetched_at":"2026-07-17T06:38:16.838Z","source":"https://celestrak.org/NORAD/elements/gp.php?NAME=HAWK&FORMAT=JSON","constellation":"hawkeye-360","records":[{"OBJECT_NAME":"HAWK-A","OBJECT_ID":"2018-099H","EPOCH":"2026-07-16T14:47:36.021696","CLASSIFICATION_TYPE":"U","MEAN_MOTION":15.24975549,"ECCENTRICITY":0.0034888,"INCLINATION":97.3895,"RA_OF_ASC_NODE":249.4721,"ARG_OF_PERICENTER":178.9967,"MEAN_ANOMALY":181.1347,"EPHEMERIS_TYPE":0,"NORAD_CAT_ID":43765,"ELEMENT_SET_NO":999,"REV_AT_EPOCH":41758,"BSTAR":0.00015182,"MEAN_MOTION_DOT":0.00003776,"MEAN_MOTION_DDOT":0},{"OBJECT_NAME":"HAWK-B","OBJECT_ID":"2018-099AN","EPOCH":"2026-07-16T16:09:31.584672","CLASSIFICATION_TYPE":"U","MEAN_MOTION":15.23125267,"ECCENTRICITY":0.0031535,"INCLINATION":97.3943,"RA_OF_ASC_NODE":248.8811,"ARG_OF_PERICENTER":196.832,"MEAN_ANOMALY":163.1874,"EPHEMERIS_TYPE":0,"NORAD_CAT_ID":43794,"ELEMENT_SET_NO":999,"REV_AT_EPOCH":41752,"BSTAR":0.00014271,"MEAN_MOTION_DOT":0.00003341,"MEAN_MOTION_DDOT":0},{"OBJECT_NAME":"HAWK-C","OBJECT_ID":"2018-099AT","EPOCH":"2026-07-16T20:28:23.990016","CLASSIFICATION_TYPE":"U","MEAN_MOTION":15.28506553,"ECCENTRICITY":0.004047,"INCLINATION":97.3871,"RA_OF_ASC_NODE":250.7657,"ARG_OF_PERICENTER":177.977,"MEAN_ANOMALY":182.1641,"EPHEMERIS_TYPE":0,"NORAD_CAT_ID":43799,"ELEMENT_SET_NO":999,"REV_AT_EPOCH":41844,"BSTAR":0.00016914,"MEAN_MOTION_DOT":0.00004728,"MEAN_MOTION_DDOT":0},{"OBJECT_NAME":"HAWK-2C","OBJECT_ID":"2021-006CT","EPOCH":"2026-07-16T16:27:46.964736","CLASSIFICATION_TYPE":"U","MEAN_MOTION":15.35000229,"ECCENTRICITY":0.0008678,"INCLINATION":97.2261,"RA_OF_ASC_NODE":241.4114,"ARG_OF_PERICENTER":96.6897,"MEAN_ANOMALY":263.5334,"EPHEMERIS_TYPE":0,"NORAD_CAT_ID":47502,"ELEMENT_SET_NO":999,"REV_AT_EPOCH":30402,"BSTAR":0.00010878,"MEAN_MOTION_DOT":0.00003619,"MEAN_MOTION_DDOT":0},{"OBJECT_NAME":"HAWK-2A","OBJECT_ID":"2021-006CW","EPOCH":"2026-07-16T16:30:57.290112","CLASSIFICATION_TYPE":"U","MEAN_MOTION":15.35021611,"ECCENTRICITY":0.000821,"INCLINATION":97.2303,"RA_OF_ASC_NODE":242.1085,"ARG_OF_PERICENTER":99.9973,"MEAN_ANOMALY":260.2197,"EPHEMERIS_TYPE":0,"NORAD_CAT_ID":47505,"ELEMENT_SET_NO":999,"REV_AT_EPOCH":30402,"BSTAR":0.00013239,"MEAN_MOTION_DOT":0.00004423,"MEAN_MOTION_DDOT":0},{"OBJECT_NAME":"HAWK-2B","OBJECT_ID":"2021-006CZ","EPOCH":"2026-07-16T14:47:35.276064","CLASSIFICATION_TYPE":"U","MEAN_MOTION":15.35148492,"ECCENTRICITY":0.000877,"INCLINATION":97.2174,"RA_OF_ASC_NODE":240.3238,"ARG_OF_PERICENTER":98.6106,"MEAN_ANOMALY":261.6132,"EPHEMERIS_TYPE":0,"NORAD_CAT_ID":47508,"ELEMENT_SET_NO":999,"REV_AT_EPOCH":30401,"BSTAR":0.000126,"MEAN_MOTION_DOT":0.00004224,"MEAN_MOTION_DDOT":0},{"OBJECT_NAME":"HAWK-3B","OBJECT_ID":"2021-059BE","EPOCH":"2026-07-16T12:01:03.159264","CLASSIFICATION_TYPE":"U","MEAN_MOTION":15.71948524,"ECCENTRICITY":0.0004634,"INCLINATION":97.6631,"RA_OF_ASC_NODE":37.0342,"ARG_OF_PERICENTER":193.444,"MEAN_ANOMALY":166.67,"EPHEMERIS_TYPE":0,"NORAD_CAT_ID":48931,"ELEMENT_SET_NO":999,"REV_AT_EPOCH":28245,"BSTAR":0.00023387,"MEAN_MOTION_DOT":0.00030374,"MEAN_MOTION_DDOT":0},{"OBJECT_NAME":"HAWK-3C","OBJECT_ID":"2021-059BX","EPOCH":"2026-07-16T13:32:15.825984","CLASSIFICATION_TYPE":"U","MEAN_MOTION":15.71954344,"ECCENTRICITY":0.00049,"INCLINATION":97.6747,"RA_OF_ASC_NODE":42.8396,"ARG_OF_PERICENTER":193.7656,"MEAN_ANOMALY":166.3473,"EPHEMERIS_TYPE":0,"NORAD_CAT_ID":48948,"ELEMENT_SET_NO":999,"REV_AT_EPOCH":28246,"BSTAR":0.00024609,"MEAN_MOTION_DOT":0.00031986,"MEAN_MOTION_DDOT":0},{"OBJECT_NAME":"HAWK-3A","OBJECT_ID":"2021-059CG","EPOCH":"2026-07-16T13:32:06.050688","CLASSIFICATION_TYPE":"U","MEAN_MOTION":15.71953796,"ECCENTRICITY":0.000482,"INCLINATION":97.6691,"RA_OF_ASC_NODE":40.0209,"ARG_OF_PERICENTER":195.861,"MEAN_ANOMALY":164.2502,"EPHEMERIS_TYPE":0,"NORAD_CAT_ID":48957,"ELEMENT_SET_NO":999,"REV_AT_EPOCH":28246,"BSTAR":0.00022989,"MEAN_MOTION_DOT":0.00029863,"MEAN_MOTION_DDOT":0},{"OBJECT_NAME":"HAWK-5C","OBJECT_ID":"2022-057Y","EPOCH":"2026-07-16T10:43:15.667968","CLASSIFICATION_TYPE":"U","MEAN_MOTION":15.52353614,"ECCENTRICITY":0.0002676,"INCLINATION":97.6619,"RA_OF_ASC_NODE":359.0269,"ARG_OF_PERICENTER":341.0919,"MEAN_ANOMALY":19.0233,"EPHEMERIS_TYPE":0,"NORAD_CAT_ID":52754,"ELEMENT_SET_NO":999,"REV_AT_EPOCH":23088,"BSTAR":0.0001826,"MEAN_MOTION_DOT":0.00011022,"MEAN_MOTION_DDOT":0},{"OBJECT_NAME":"HAWK-5B","OBJECT_ID":"2022-057AA","EPOCH":"2026-07-16T19:59:56.234400","CLASSIFICATION_TYPE":"U","MEAN_MOTION":15.52358501,"ECCENTRICITY":0.0003341,"INCLINATION":97.6633,"RA_OF_ASC_NODE":357.793,"ARG_OF_PERICENTER":324.6672,"MEAN_ANOMALY":35.4358,"EPHEMERIS_TYPE":0,"NORAD_CAT_ID":52756,"ELEMENT_SET_NO":999,"REV_AT_EPOCH":23094,"BSTAR":0.00017649,"MEAN_MOTION_DOT":0.00010652,"MEAN_MOTION_DDOT":0},{"OBJECT_NAME":"HAWK-5A","OBJECT_ID":"2022-057AB","EPOCH":"2026-07-16T10:42:42.867936","CLASSIFICATION_TYPE":"U","MEAN_MOTION":15.52352143,"ECCENTRICITY":0.0003229,"INCLINATION":97.6626,"RA_OF_ASC_NODE":358.2106,"ARG_OF_PERICENTER":332.4655,"MEAN_ANOMALY":27.6425,"EPHEMERIS_TYPE":0,"NORAD_CAT_ID":52757,"ELEMENT_SET_NO":999,"REV_AT_EPOCH":23088,"BSTAR":0.00018293,"MEAN_MOTION_DOT":0.00011042,"MEAN_MOTION_DDOT":0},{"OBJECT_NAME":"HAWK-6B","OBJECT_ID":"2023-011A","EPOCH":"2026-07-16T08:41:25.559232","CLASSIFICATION_TYPE":"U","MEAN_MOTION":15.23160082,"ECCENTRICITY":0.0004316,"INCLINATION":40.4972,"RA_OF_ASC_NODE":181.8706,"ARG_OF_PERICENTER":246.4239,"MEAN_ANOMALY":113.6117,"EPHEMERIS_TYPE":0,"NORAD_CAT_ID":55324,"ELEMENT_SET_NO":999,"REV_AT_EPOCH":19229,"BSTAR":0.00011122,"MEAN_MOTION_DOT":0.00002488,"MEAN_MOTION_DDOT":0},{"OBJECT_NAME":"HAWK-6C","OBJECT_ID":"2023-011C","EPOCH":"2026-07-16T08:40:30.952704","CLASSIFICATION_TYPE":"U","MEAN_MOTION":15.23160464,"ECCENTRICITY":0.000483,"INCLINATION":40.4963,"RA_OF_ASC_NODE":178.71,"ARG_OF_PERICENTER":240.032,"MEAN_ANOMALY":120.001,"EPHEMERIS_TYPE":0,"NORAD_CAT_ID":55326,"ELEMENT_SET_NO":999,"REV_AT_EPOCH":19230,"BSTAR":0.000097874,"MEAN_MOTION_DOT":0.00002165,"MEAN_MOTION_DDOT":0},{"OBJECT_NAME":"HAWK-6A","OBJECT_ID":"2023-011D","EPOCH":"2026-07-16T08:40:34.203072","CLASSIFICATION_TYPE":"U","MEAN_MOTION":15.23160255,"ECCENTRICITY":0.0004429,"INCLINATION":40.4973,"RA_OF_ASC_NODE":180.3367,"ARG_OF_PERICENTER":237.1478,"MEAN_ANOMALY":122.8905,"EPHEMERIS_TYPE":0,"NORAD_CAT_ID":55327,"ELEMENT_SET_NO":999,"REV_AT_EPOCH":19230,"BSTAR":0.00010286,"MEAN_MOTION_DOT":0.00002286,"MEAN_MOTION_DDOT":0},{"OBJECT_NAME":"HAWK-7A","OBJECT_ID":"2023-054P","EPOCH":"2026-07-16T17:16:58.686816","CLASSIFICATION_TYPE":"U","MEAN_MOTION":15.27641958,"ECCENTRICITY":0.0001252,"INCLINATION":97.2658,"RA_OF_ASC_NODE":84.3065,"ARG_OF_PERICENTER":324.0087,"MEAN_ANOMALY":36.1068,"EPHEMERIS_TYPE":0,"NORAD_CAT_ID":56191,"ELEMENT_SET_NO":999,"REV_AT_EPOCH":18153,"BSTAR":0.00011301,"MEAN_MOTION_DOT":0.00002981,"MEAN_MOTION_DDOT":0}]}
